start=new Date('2022-09-01T00:00:00.000Z').valueOf();
sats=[{"EPOCH":"2022-08-31T22:00:00.999936","RCS_SIZE":"LARGE","EPHEMERIS_TYPE":"0","TLE_LINE1":"1 52872U 22062AU  22243.91667824 -.01023706  00000-0 -10498-1 0  9996","MEAN_MOTION_DDOT":"0.0000000000000","REF_FRAME":"TEME","CENTER_NAME":"EARTH","NORAD_CAT_ID":"52872","MEAN_MOTION":"15.66968306","LAUNCH_DATE":"2022-06-17","INCLINATION":"53.2165","TLE_LINE2":"2 52872  53.2165  31.7771 0001280  59.2648  86.0605 15.66968306  1308","BSTAR":"-0.01049800000000","RA_OF_ASC_NODE":"31.7771","FILE":"3552761","MEAN_ELEMENT_THEORY":"SGP4","GP_ID":"211426985","PERIOD":"91.897","OBJECT_TYPE":"PAYLOAD","ARG_OF_PERICENTER":"59.2648","OBJECT_ID":"2022-062AU","SEMIMAJOR_AXIS":"6745.721","APOAPSIS":"368.449","MEAN_MOTION_DOT":"-0.01023706","COUNTRY_CODE":"US","TIME_SYSTEM":"UTC","DECAY_DATE":null,"PERIAPSIS":"366.722","OBJECT_NAME":"STARLINK-4213","ELEMENT_SET_NO":"999","REV_AT_EPOCH":"130","ECCENTRICITY":"0.00012800","MEAN_ANOMALY":"86.0605","CLASSIFICATION_TYPE":"U","SITE":"AFETR"},{"CLASSIFICATION_TYPE":"U","SITE":"AFETR","MEAN_ANOMALY":"87.2278","ELEMENT_SET_NO":"999","ECCENTRICITY":"0.00013090","REV_AT_EPOCH":"130","DECAY_DATE":null,"OBJECT_NAME":"STARLINK-4211","PERIAPSIS":"366.644","TIME_SYSTEM":"UTC","MEAN_MOTION_DOT":"-0.01015867","COUNTRY_CODE":"US","APOAPSIS":"368.410","SEMIMAJOR_AXIS":"6745.662","ARG_OF_PERICENTER":"60.7486","OBJECT_ID":"2022-062AV","OBJECT_TYPE":"PAYLOAD","PERIOD":"91.896","GP_ID":"211427841","MEAN_ELEMENT_THEORY":"SGP4","FILE":"3552761","RA_OF_ASC_NODE":"31.7884","BSTAR":"-0.01040000000000","TLE_LINE2":"2 52873  53.2166  31.7884 0001309  60.7486  87.2278 15.66988985  1308","INCLINATION":"53.2166","LAUNCH_DATE":"2022-06-17","MEAN_MOTION":"15.66988985","CENTER_NAME":"EARTH","NORAD_CAT_ID":"52873","REF_FRAME":"TEME","MEAN_MOTION_DDOT":"0.0000000000000","EPHEMERIS_TYPE":"0","RCS_SIZE":"LARGE","EPOCH":"2022-08-31T22:00:00.999936","TLE_LINE1":"1 52873U 22062AV  22243.91667824 -.01015867  00000-0 -10400-1 0  9999"},{"OBJECT_TYPE":"PAYLOAD","PERIOD":"91.892","OBJECT_ID":"2022-062AW","ARG_OF_PERICENTER":"55.8143","SEMIMAJOR_AXIS":"6745.488","APOAPSIS":"368.203","MEAN_MOTION_DOT":"-0.01131477","COUNTRY_CODE":"US","TIME_SYSTEM":"UTC","DECAY_DATE":null,"PERIAPSIS":"366.503","OBJECT_NAME":"STARLINK-4210","ECCENTRICITY":"0.00012600","ELEMENT_SET_NO":"999","REV_AT_EPOCH":"130","MEAN_ANOMALY":"90.1308","SITE":"AFETR","CLASSIFICATION_TYPE":"U","RCS_SIZE":"LARGE","EPHEMERIS_TYPE":"0","EPOCH":"2022-08-31T22:00:00.999936","TLE_LINE1":"1 52874U 22062AW  22243.91667824 -.01131477  00000-0 -11489-1 0  9994","MEAN_MOTION_DDOT":"0.0000000000000","REF_FRAME":"TEME","CENTER_NAME":"EARTH","NORAD_CAT_ID":"52874","MEAN_MOTION":"15.67049439","LAUNCH_DATE":"2022-06-17","INCLINATION":"53.2165","TLE_LINE2":"2 52874  53.2165  31.7795 0001260  55.8143  90.1308 15.67049439  1300","BSTAR":"-0.01148900000000","RA_OF_ASC_NODE":"31.7795","FILE":"3552761","MEAN_ELEMENT_THEORY":"SGP4","GP_ID":"211427260"},{"BSTAR":"-0.01099900000000","TLE_LINE2":"2 52875  53.2167  31.7913 0001383  51.6653  96.9464 15.67041354  1306","LAUNCH_DATE":"2022-06-17","INCLINATION":"53.2167","MEAN_MOTION":"15.67041354","NORAD_CAT_ID":"52875","CENTER_NAME":"EARTH","REF_FRAME":"TEME","MEAN_MOTION_DDOT":"0.0000000000000","TLE_LINE1":"1 52875U 22062AX  22243.91667824 -.01070437  00000-0 -10999-1 0  9998","RCS_SIZE":"LARGE","EPOCH":"2022-08-31T22:00:00.999936","EPHEMERIS_TYPE":"0","GP_ID":"211427128","MEAN_ELEMENT_THEORY":"SGP4","FILE":"3552761","RA_OF_ASC_NODE":"31.7913","APOAPSIS":"368.309","SEMIMAJOR_AXIS":"6745.511","OBJECT_ID":"2022-062AX","ARG_OF_PERICENTER":"51.6653","PERIOD":"91.893","OBJECT_TYPE":"PAYLOAD","SITE":"AFETR","CLASSIFICATION_TYPE":"U","MEAN_ANOMALY":"96.9464","REV_AT_EPOCH":"130","ELEMENT_SET_NO":"999","ECCENTRICITY":"0.00013830","OBJECT_NAME":"STARLINK-4193","PERIAPSIS":"366.443","DECAY_DATE":null,"TIME_SYSTEM":"UTC","COUNTRY_CODE":"US","MEAN_MOTION_DOT":"-0.01070437"},{"FILE":"3552761","RA_OF_ASC_NODE":"31.7850","MEAN_ELEMENT_THEORY":"SGP4","GP_ID":"211427403","CENTER_NAME":"EARTH","NORAD_CAT_ID":"52876","MEAN_MOTION":"15.66981435","RCS_SIZE":"LARGE","EPOCH":"2022-08-31T22:00:00.999936","EPHEMERIS_TYPE":"0","TLE_LINE1":"1 52876U 22062AY  22243.91667824 -.01012514  00000-0 -10365-1 0  9998","REF_FRAME":"TEME","MEAN_MOTION_DDOT":"0.0000000000000","BSTAR":"-0.01036500000000","LAUNCH_DATE":"2022-06-17","INCLINATION":"53.2166","TLE_LINE2":"2 52876  53.2166  31.7850 0001354  51.6882  95.6253 15.66981435  1302","TIME_SYSTEM":"UTC","DECAY_DATE":null,"OBJECT_NAME":"STARLINK-4200","PERIAPSIS":"366.635","MEAN_MOTION_DOT":"-0.01012514","COUNTRY_CODE":"US","SITE":"AFETR","CLASSIFICATION_TYPE":"U","ELEMENT_SET_NO":"999","ECCENTRICITY":"0.00013540","REV_AT_EPOCH":"130","MEAN_ANOMALY":"95.6253","ARG_OF_PERICENTER":"51.6882","OBJECT_ID":"2022-062AY","OBJECT_TYPE":"PAYLOAD","PERIOD":"91.896","APOAPSIS":"368.462","SEMIMAJOR_AXIS":"6745.683"},{"APOAPSIS":"368.156","SEMIMAJOR_AXIS":"6745.433","OBJECT_ID":"2022-062AZ","ARG_OF_PERICENTER":"65.6541","PERIOD":"91.891","OBJECT_TYPE":"PAYLOAD","CLASSIFICATION_TYPE":"U","SITE":"AFETR","ELEMENT_SET_NO":"999","ECCENTRICITY":"0.00012720","REV_AT_EPOCH":"130","MEAN_ANOMALY":"84.2698","TIME_SYSTEM":"UTC","PERIAPSIS":"366.440","OBJECT_NAME":"STARLINK-4214","DECAY_DATE":null,"COUNTRY_CODE":"US","MEAN_MOTION_DOT":"-0.01080806","BSTAR":"-0.01110600000000","LAUNCH_DATE":"2022-06-17","INCLINATION":"53.2169","TLE_LINE2":"2 52877  53.2169  31.8160 0001272  65.6541  84.2698 15.67068677  1309","NORAD_CAT_ID":"52877","CENTER_NAME":"EARTH","MEAN_MOTION":"15.67068677","TLE_LINE1":"1 52877U 22062AZ  22243.91667824 -.01080806  00000-0 -11106-1 0  9992","EPOCH":"2022-08-31T22:00:00.999936","RCS_SIZE":"LARGE","EPHEMERIS_TYPE":"0","REF_FRAME":"TEME","MEAN_MOTION_DDOT":"0.0000000000000","MEAN_ELEMENT_THEORY":"SGP4","GP_ID":"211427690","FILE":"3552761","RA_OF_ASC_NODE":"31.8160"},{"ECCENTRICITY":"0.00011670","REV_AT_EPOCH":"130","ELEMENT_SET_NO":"999","MEAN_ANOMALY":"74.8389","SITE":"AFETR","CLASSIFICATION_TYPE":"U","COUNTRY_CODE":"US","MEAN_MOTION_DOT":"-0.01047840","TIME_SYSTEM":"UTC","PERIAPSIS":"366.624","OBJECT_NAME":"STARLINK-4171","DECAY_DATE":null,"SEMIMAJOR_AXIS":"6745.547","APOAPSIS":"368.199","PERIOD":"91.894","OBJECT_TYPE":"PAYLOAD","OBJECT_ID":"2022-062BA","ARG_OF_PERICENTER":"74.4463","MEAN_ELEMENT_THEORY":"SGP4","GP_ID":"211426843","RA_OF_ASC_NODE":"31.7924","FILE":"3552761","INCLINATION":"53.2172","LAUNCH_DATE":"2022-06-17","TLE_LINE2":"2 52878  53.2172  31.7924 0001167  74.4463  74.8389 15.67029039  1306","BSTAR":"-0.01074700000000","TLE_LINE1":"1 52878U 22062BA  22243.91667824 -.01047840  00000-0 -10747-1 0  9994","RCS_SIZE":"LARGE","EPHEMERIS_TYPE":"0","EPOCH":"2022-08-31T22:00:00.999936","REF_FRAME":"TEME","MEAN_MOTION_DDOT":"0.0000000000000","NORAD_CAT_ID":"52878","CENTER_NAME":"EARTH","MEAN_MOTION":"15.67029039"},{"MEAN_ELEMENT_THEORY":"SGP4","GP_ID":"211427546","RA_OF_ASC_NODE":"31.8260","FILE":"3552761","INCLINATION":"53.2173","LAUNCH_DATE":"2022-06-17","TLE_LINE2":"2 52879  53.2173  31.8260 0001291  57.8464  94.0815 15.67057665  1300","BSTAR":"-0.01073100000000","EPOCH":"2022-08-31T22:00:00.999936","RCS_SIZE":"LARGE","EPHEMERIS_TYPE":"0","TLE_LINE1":"1 52879U 22062BB  22243.91667824 -.01047583  00000-0 -10731-1 0  9992","MEAN_MOTION_DDOT":"0.0000000000000","REF_FRAME":"TEME","CENTER_NAME":"EARTH","NORAD_CAT_ID":"52879","MEAN_MOTION":"15.67057665","REV_AT_EPOCH":"130","ELEMENT_SET_NO":"999","ECCENTRICITY":"0.00012910","MEAN_ANOMALY":"94.0815","SITE":"AFETR","CLASSIFICATION_TYPE":"U","MEAN_MOTION_DOT":"-0.01047583","COUNTRY_CODE":"US","TIME_SYSTEM":"UTC","DECAY_DATE":null,"PERIAPSIS":"366.459","OBJECT_NAME":"STARLINK-4139","SEMIMAJOR_AXIS":"6745.464","APOAPSIS":"368.200","OBJECT_TYPE":"PAYLOAD","PERIOD":"91.892","OBJECT_ID":"2022-062BB","ARG_OF_PERICENTER":"57.8464"},{"ECCENTRICITY":"0.00014890","REV_AT_EPOCH":"130","ELEMENT_SET_NO":"999","MEAN_ANOMALY":"104.5207","SITE":"AFETR","CLASSIFICATION_TYPE":"U","COUNTRY_CODE":"US","MEAN_MOTION_DOT":"-0.01060429","TIME_SYSTEM":"UTC","PERIAPSIS":"366.314","OBJECT_NAME":"STARLINK-4186","DECAY_DATE":null,"SEMIMAJOR_AXIS":"6745.453","APOAPSIS":"368.323","OBJECT_TYPE":"PAYLOAD","PERIOD":"91.892","ARG_OF_PERICENTER":"46.7407","OBJECT_ID":"2022-062BC","MEAN_ELEMENT_THEORY":"SGP4","GP_ID":"211426986","RA_OF_ASC_NODE":"31.8213","FILE":"3552761","LAUNCH_DATE":"2022-06-17","INCLINATION":"53.2169","TLE_LINE2":"2 52880  53.2169  31.8213 0001489  46.7407 104.5207 15.67061579  1309","BSTAR":"-0.01087500000000","TLE_LINE1":"1 52880U 22062BC  22243.91667824 -.01060429  00000-0 -10875-1 0  9997","EPHEMERIS_TYPE":"0","RCS_SIZE":"LARGE","EPOCH":"2022-08-31T22:00:00.999936","MEAN_MOTION_DDOT":"0.0000000000000","REF_FRAME":"TEME","NORAD_CAT_ID":"52880","CENTER_NAME":"EARTH","MEAN_MOTION":"15.67061579"},{"OBJECT_ID":"2022-062BD","ARG_OF_PERICENTER":"48.2806","PERIOD":"91.892","OBJECT_TYPE":"PAYLOAD","APOAPSIS":"368.298","SEMIMAJOR_AXIS":"6745.447","TIME_SYSTEM":"UTC","DECAY_DATE":null,"OBJECT_NAME":"STARLINK-4192","PERIAPSIS":"366.327","MEAN_MOTION_DOT":"-0.01070469","COUNTRY_CODE":"US","CLASSIFICATION_TYPE":"U","SITE":"AFETR","ECCENTRICITY":"0.00014610","REV_AT_EPOCH":"130","ELEMENT_SET_NO":"999","MEAN_ANOMALY":"102.3141","NORAD_CAT_ID":"52881","CENTER_NAME":"EARTH","MEAN_MOTION":"15.67063645","RCS_SIZE":"LARGE","EPOCH":"2022-08-31T22:00:00.999936","EPHEMERIS_TYPE":"0","TLE_LINE1":"1 52881U 22062BD  22243.91667824 -.01070469  00000-0 -10989-1 0  9999","MEAN_MOTION_DDOT":"0.0000000000000","REF_FRAME":"TEME","BSTAR":"-0.01098900000000","INCLINATION":"53.2166","LAUNCH_DATE":"2022-06-17","TLE_LINE2":"2 52881  53.2166  31.8189 0001461  48.2806 102.3141 15.67063645  1308","FILE":"3552761","RA_OF_ASC_NODE":"31.8189","MEAN_ELEMENT_THEORY":"SGP4","GP_ID":"211427842"}];
